OBJECT_NAME,OBJECT_ID,EPOCH,MEAN_MOTION,ECCENTRICITY,INCLINATION,RA_OF_ASC_NODE,ARG_OF_PERICENTER,MEAN_ANOMALY,EPHEMERIS_TYPE,CLASSIFICATION_TYPE,NORAD_CAT_ID,ELEMENT_SET_NO,REV_AT_EPOCH,BSTAR,MEAN_MOTION_DOT,MEAN_MOTION_DDOT
ONEWEB-0053,2020-008AC,2026-07-02T02:09:07.763616,13.10374610,.00017904,87.8817,33.3145,70.2794,289.8526,0,U,45157,999,30986,-.49194644E-3,-.159E-5,0
ONEWEB-0054,2020-008AD,2026-07-02T03:00:30.919104,13.10371570,.00018848,87.8825,33.2919,85.0029,275.1314,0,U,45158,999,30998,.88955888E-3,.323E-5,0
ONEWEB-0056,2020-008AE,2026-07-02T02:18:42.753024,13.10375110,.00020877,87.8830,33.2909,86.3418,273.7948,0,U,45159,999,31013,.41114248E-3,.156E-5,0
ONEWEB-0057,2020-008AF,2026-07-02T02:43:34.002336,13.10371374,.00018903,87.8822,33.2994,69.1595,290.9735,0,U,45160,999,31030,.18932169E-2,.674E-5,0
ONEWEB-0058,2020-008AG,2026-07-02T02:24:33.587136,13.10376279,.00017062,87.8819,33.3071,91.7711,268.3611,0,U,45161,999,31037,.99897089E-3,.361E-5,0
ONEWEB-0059,2020-008AH,2026-07-02T02:19:07.894560,13.10373372,.0001624,87.8819,33.3071,78.2469,281.8840,0,U,45162,999,31027,.80498174E-3,.294E-5,0
ONEWEB-0062,2020-008AJ,2026-07-02T02:52:57.577440,13.10371289,.00018594,87.8824,33.2908,96.0554,264.0785,0,U,45163,999,31014,.16406688E-2,.585E-5,0
ONEWEB-0065,2020-008AK,2026-07-02T00:01:53.905440,13.10375821,.00019876,87.8823,33.3227,77.6401,282.4948,0,U,45164,999,30982,-.15826482E-2,-.54E-5,0
ONEWEB-0066,2020-020A,2026-07-02T06:04:58.022976,13.11414937,.00016399,87.8874,18.0708,87.9491,272.1824,0,U,45424,999,30465,-.12166254E-2,-.418E-5,0
ONEWEB-0067,2020-020B,2026-07-01T23:39:56.468736,13.11426153,.00018307,87.8900,18.0489,82.4170,277.7166,0,U,45425,999,30467,.13781376E-2,.501E-5,0
ONEWEB-0080,2020-020C,2026-07-01T23:39:25.983360,13.11417050,.00018624,87.8890,18.1222,97.8509,262.2831,0,U,45426,999,30464,.14405188E-2,.523E-5,0
ONEWEB-0090,2020-020D,2026-07-02T05:50:31.821504,13.11415219,.00018843,87.8885,18.0753,91.2492,268.8852,0,U,45427,999,30464,-.23600284E-3,-.71E-6,0
ONEWEB-0061,2020-020E,2026-07-01T23:17:02.517792,13.11417723,.00018215,87.8887,18.1142,89.2284,270.9053,0,U,45428,999,30456,-.52190842E-3,-.172E-5,0
ONEWEB-0081,2020-020F,2026-07-02T00:40:14.741760,13.11415876,.00016856,87.8882,18.1123,83.4868,276.6452,0,U,45429,999,30468,-.15693827E-2,-.543E-5,0
ONEWEB-0069,2020-020G,2026-07-02T02:32:46.965696,13.11418615,.00016358,87.8882,18.1000,85.8721,274.2594,0,U,45430,999,30462,-.17638451E-2,-.612E-5,0
ONEWEB-0031,2020-020H,2026-07-01T23:44:06.735840,13.11417113,.00018653,87.8877,18.1272,93.7314,266.4028,0,U,45431,999,30459,.16769723E-2,.607E-5,0
ONEWEB-0027,2020-020J,2026-07-02T05:17:37.648896,13.17652036,.00023052,87.9134,2.8743,99.0599,261.0793,0,U,45432,999,30833,-.19039876E-3,-.61E-6,0
ONEWEB-0064,2020-020K,2026-07-01T23:41:40.186752,13.11418297,.00019447,87.8881,18.1199,92.3848,267.7503,0,U,45433,999,30462,.14596533E-2,.53E-5,0
ONEWEB-0018,2020-020L,2026-07-02T05:57:26.252928,13.11413807,.00014541,87.8879,18.0674,93.4514,266.6780,0,U,45434,999,30460,-.71954969E-3,-.242E-5,0
ONEWEB-0083,2020-020M,2026-07-02T05:43:12.470592,13.11414622,.00018465,87.8883,18.0639,91.2796,268.8544,0,U,45435,999,30464,.30792083E-3,.122E-5,0
ONEWEB-0095,2020-020N,2026-07-02T05:30:59.906592,13.11415081,.00025261,87.8885,18.0742,84.2373,275.9043,0,U,45436,999,30464,.12238972E-2,.446E-5,0
ONEWEB-0092,2020-020P,2026-07-02T02:35:00.680064,13.11412135,.00019896,87.8886,18.0897,81.5740,278.5613,0,U,45437,999,30474,-.16839086E-2,-.584E-5,0
ONEWEB-0085,2020-020Q,2026-07-02T05:42:48.691584,13.11414610,.00018391,87.8878,18.0697,88.6707,271.4631,0,U,45438,999,30464,.45953743E-3,.176E-5,0
ONEWEB-0096,2020-020R,2026-07-02T02:05:42.150624,13.11413798,.00019407,87.8885,18.0962,89.0495,271.0856,0,U,45439,999,30461,.1167242E-3,.54E-6,0
ONEWEB-0037,2020-020S,2026-07-01T23:05:51.912960,13.11915143,.00019057,87.8898,18.0943,87.0356,273.0991,0,U,45440,999,30463,-.10839442E-2,-.374E-5,0
ONEWEB-0042,2020-020T,2026-07-02T00:01:00.568128,13.11414967,.00017758,87.8885,18.1101,85.0883,275.0447,0,U,45441,999,30460,.12455344E-2,.454E-5,0
ONEWEB-0098,2020-020U,2026-07-01T23:55:05.375136,13.11417560,.0001829,87.8883,18.1200,90.9612,269.1726,0,U,45442,999,30458,.15426941E-2,.559E-5,0
ONEWEB-0055,2020-020V,2026-07-01T23:24:22.750848,13.11419013,.00018469,87.8889,18.1233,90.8553,269.2786,0,U,45443,999,30455,-.17326197E-3,-.49E-6,0
ONEWEB-0093,2020-020W,2026-07-02T02:37:47.037216,13.10892503,.00016415,87.8885,18.0905,80.9214,279.2099,0,U,45444,999,30463,-.16801019E-2,-.578E-5,0
ONEWEB-0029,2020-020X,2026-07-01T23:34:32.535264,13.11417168,.0001617,87.8877,18.1229,84.3996,275.7316,0,U,45445,999,30459,.10112187E-2,.371E-5,0
