ONEWEB-0053             
1 45157U 20008AC  26183.08967319 -.00000159  00000+0 -49195-3 0  9992
2 45157  87.8817  33.3145 0001790  70.2794 289.8526 13.10374610309860
ONEWEB-0054             
1 45158U 20008AD  26183.12535786  .00000323  00000+0  88956-3 0  9996
2 45158  87.8825  33.2919 0001884  85.0029 275.1314 13.10371570309985
ONEWEB-0056             
1 45159U 20008AE  26183.09632816  .00000156  00000+0  41114-3 0  9994
2 45159  87.8830  33.2909 0002087  86.3418 273.7948 13.10375110310133
ONEWEB-0057             
1 45160U 20008AF  26183.11358799  .00000674  00000+0  18932-2 0  9990
2 45160  87.8822  33.2994 0001890  69.1595 290.9735 13.10371374310308
ONEWEB-0058             
1 45161U 20008AG  26183.10038874  .00000361  00000+0  99897-3 0  9992
2 45161  87.8819  33.3071 0001706  91.7711 268.3611 13.10376279310377
ONEWEB-0059             
1 45162U 20008AH  26183.09661915  .00000294  00000+0  80498-3 0  9991
2 45162  87.8819  33.3071 0001624  78.2469 281.8840 13.10373372310271
ONEWEB-0062             
1 45163U 20008AJ  26183.12011085  .00000585  00000+0  16407-2 0  9994
2 45163  87.8824  33.2908 0001859  96.0554 264.0785 13.10371289310141
ONEWEB-0065             
1 45164U 20008AK  26183.00131835 -.00000540  00000+0 -15826-2 0  9995
2 45164  87.8823  33.3227 0001987  77.6401 282.4948 13.10375821309828
ONEWEB-0066             
1 45424U 20020A   26183.25344934 -.00000418  00000+0 -12166-2 0  9999
2 45424  87.8874  18.0708 0001639  87.9491 272.1824 13.11414937304652
ONEWEB-0067             
1 45425U 20020B   26182.98607024  .00000501  00000+0  13781-2 0  9996
2 45425  87.8900  18.0489 0001830  82.4170 277.7166 13.11426153304671
ONEWEB-0080             
1 45426U 20020C   26182.98571740  .00000523  00000+0  14405-2 0  9990
2 45426  87.8890  18.1222 0001862  97.8509 262.2831 13.11417050304648
ONEWEB-0090             
1 45427U 20020D   26183.24342386 -.00000071  00000+0 -23600-3 0  9991
2 45427  87.8885  18.0753 0001884  91.2492 268.8852 13.11415219304644
ONEWEB-0061             
1 45428U 20020E   26182.97016803 -.00000172  00000+0 -52191-3 0  9992
2 45428  87.8887  18.1142 0001821  89.2284 270.9053 13.11417723304567
ONEWEB-0081             
1 45429U 20020F   26183.02794840 -.00000543  00000+0 -15694-2 0  9992
2 45429  87.8882  18.1123 0001685  83.4868 276.6452 13.11415876304680
ONEWEB-0069             
1 45430U 20020G   26183.10609914 -.00000612  00000+0 -17638-2 0  9997
2 45430  87.8882  18.1000 0001635  85.8721 274.2594 13.11418615304624
ONEWEB-0031             
1 45431U 20020H   26182.98896685  .00000607  00000+0  16770-2 0  9994
2 45431  87.8877  18.1272 0001865  93.7314 266.4028 13.11417113304594
ONEWEB-0027             
1 45432U 20020J   26183.22057464 -.00000061  00000+0 -19040-3 0  9997
2 45432  87.9134   2.8743 0002305  99.0599 261.0793 13.17652036308336
ONEWEB-0064             
1 45433U 20020K   26182.98727068  .00000530  00000+0  14597-2 0  9994
2 45433  87.8881  18.1199 0001944  92.3848 267.7503 13.11418297304624
ONEWEB-0018             
1 45434U 20020L   26183.24822052 -.00000242  00000+0 -71955-3 0  9998
2 45434  87.8879  18.0674 0001454  93.4514 266.6780 13.11413807304602
ONEWEB-0083             
1 45435U 20020M   26183.23833878  .00000122  00000+0  30792-3 0  9995
2 45435  87.8883  18.0639 0001846  91.2796 268.8544 13.11414622304644
ONEWEB-0095             
1 45436U 20020N   26183.22986003  .00000446  00000+0  12239-2 0  9998
2 45436  87.8885  18.0742 0002526  84.2373 275.9043 13.11415081304644
ONEWEB-0092             
1 45437U 20020P   26183.10764676 -.00000584  00000+0 -16839-2 0  9991
2 45437  87.8886  18.0897 0001989  81.5740 278.5613 13.11412135304747
ONEWEB-0085             
1 45438U 20020Q   26183.23806356  .00000176  00000+0  45954-3 0  9994
2 45438  87.8878  18.0697 0001839  88.6707 271.4631 13.11414610304643
ONEWEB-0096             
1 45439U 20020R   26183.08729341  .00000054  00000+0  11672-3 0  9991
2 45439  87.8885  18.0962 0001940  89.0495 271.0856 13.11413798304617
ONEWEB-0037             
1 45440U 20020S   26182.96240640 -.00000374  00000+0 -10839-2 0  9999
2 45440  87.8898  18.0943 0001905  87.0356 273.0991 13.11915143304632
ONEWEB-0042             
1 45441U 20020T   26183.00070102  .00000454  00000+0  12455-2 0  9993
2 45441  87.8885  18.1101 0001775  85.0883 275.0447 13.11414967304607
ONEWEB-0098             
1 45442U 20020U   26182.99658999  .00000559  00000+0  15427-2 0  9995
2 45442  87.8883  18.1200 0001829  90.9612 269.1726 13.11417560304584
ONEWEB-0055             
1 45443U 20020V   26182.97526332 -.00000049  00000+0 -17326-3 0  9996
2 45443  87.8889  18.1233 0001846  90.8553 269.2786 13.11419013304558
ONEWEB-0093             
1 45444U 20020W   26183.10957219 -.00000578  00000+0 -16801-2 0  9998
2 45444  87.8885  18.0905 0001641  80.9214 279.2099 13.10892503304632
ONEWEB-0029             
1 45445U 20020X   26182.98232101  .00000371  00000+0  10112-2 0  9998
2 45445  87.8877  18.1229 0001617  84.3996 275.7316 13.11417168304591
